STARLINK-33709          
1 63419U 25065W   26068.14755491  .00041815  00000+0  15197-2 0  9992
2 63419  42.9977 110.3793 0001213 265.0851  94.9862 15.27595604 52752
BANDWAGON-4 OBJECT P    
1 66306U 25248P   26067.98083108  .00022647  00000+0  92291-3 0  9996
2 66306  45.4037 295.4322 0012078 209.3167 150.7044 15.24098352 19290
